{"type": "FeatureCollection", "features": [ {"type": "Feature", "properties": {"norad_id": 44542, "name": "BEIDOU-3 M24 (C46)", "group": "gnss", "lat": -48.120338428518025, "lon": 135.44932289036655, "alt_km": 21534.819968905304, "timestamp": "2025-12-27T20:30:59.528277+00:00", "meta": {"OBJECT_NAME": "BEIDOU-3 M24 (C46)", "OBJECT_ID": "2019-061A", "EPOCH": "2025-12-25T19:20:31.720416", "MEAN_MOTION": 1.86229328, "ECCENTRICITY": 0.00095592, "INCLINATION": 54.4007, "RA_OF_ASC_NODE": 188.5751, "ARG_OF_PERICENTER": 26.2339, "MEAN_ANOMALY": 333.8493, "EPHEMERIS_TYPE": 0, "CLASSIFICATION_TYPE": "U", "NORAD_CAT_ID": 44542, "ELEMENT_SET_NO": 999, "REV_AT_EPOCH": 4256, "BSTAR": 0, "MEAN_MOTION_DOT": 1.16e-06, "MEAN_MOTION_DDOT": 0}, "tle": {"line1": "1 44542U 19061A   25359.80592269  .00000116  00000+0  00000+0 0  9997", "line2": "2 44542  54.4007 188.5751 0009559  26.2339 333.8493  1.86229328 42560"}}, "geometry": {"type": "Point", "coordinates": [135.44932289036655, -48.120338428518025]}}, {"type": "Feature", "properties": {"norad_id": 44543, "name": "BEIDOU-3 M23 (C45)", "group": "gnss", "lat": -21.235344208491927, "lon": 24.64624834931802, "alt_km": 21547.936663092485, "timestamp": "2025-12-27T20:30:59.528288+00:00", "meta": {"OBJECT_NAME": "BEIDOU-3 M23 (C45)", "OBJECT_ID": "2019-061B", "EPOCH": "2025-12-26T11:37:48.857664", "MEAN_MOTION": 1.86227559, "ECCENTRICITY": 0.0005976, "INCLINATION": 54.3995, "RA_OF_ASC_NODE": 188.5205, "ARG_OF_PERICENTER": 25.6827, "MEAN_ANOMALY": 342.0898, "EPHEMERIS_TYPE": 0, "CLASSIFICATION_TYPE": "U", "NORAD_CAT_ID": 44543, "ELEMENT_SET_NO": 999, "REV_AT_EPOCH": 4258, "BSTAR": 0, "MEAN_MOTION_DOT": 1.22e-06, "MEAN_MOTION_DDOT": 0}, "tle": {"line1": "1 44543U 19061B   25360.48459326  .00000122  00000+0  00000+0 0  9997", "line2": "2 44543  54.3995 188.5205 0005976  25.6827 342.0898  1.86227559 42581"}}, "geometry": {"type": "Point", "coordinates": [24.64624834931802, -21.235344208491927]}}, {"type": "Feature", "properties": {"norad_id": 44624, "name": "EUTELSAT 5 WEST B (EGNOS/PRN 121)", "group": "gnss", "lat": 0.05868730308543501, "lon": 39.34928822656737, "alt_km": 35794.10816477104, "timestamp": "2025-12-27T20:30:59.528300+00:00", "meta": {"OBJECT_NAME": "EUTELSAT 5 WEST B (EGNOS/PRN 121)", "OBJECT_ID": "2019-067A", "EPOCH": "2025-12-27T04:42:38.440800", "MEAN_MOTION": 1.00271215, "ECCENTRICITY": 0.0003275, "INCLINATION": 0.0618, "RA_OF_ASC_NODE": 348.7107, "ARG_OF_PERICENTER": 285.9376, "MEAN_ANOMALY": 246.9417, "EPHEMERIS_TYPE": 0, "CLASSIFICATION_TYPE": "U", "NORAD_CAT_ID": 44624, "ELEMENT_SET_NO": 999, "REV_AT_EPOCH": 2271, "BSTAR": 0, "MEAN_MOTION_DOT": -2e-07, "MEAN_MOTION_DDOT": 0}, "tle": {"line1": "1 44624U 19067A   25361.19627825 -.00000020  00000+0  00000+0 0  9991", "line2": "2 44624   0.0618 348.7107 0003275 285.9376 246.9417  1.00271215 22718"}}, "geometry": {"type": "Point", "coordinates": [39.34928822656737, 0.05868730308543501]}}, {"type": "Feature", "properties": {"norad_id": 44793, "name": "BEIDOU-3 M22 (C44)", "group": "gnss", "lat": 32.150757802296994, "lon": -27.10114453527527, "alt_km": 21507.70335971143, "timestamp": "2025-12-27T20:30:59.528311+00:00", "meta": {"OBJECT_NAME": "BEIDOU-3 M22 (C44)", "OBJECT_ID": "2019-078A", "EPOCH": "2025-12-26T04:23:18.195072", "MEAN_MOTION": 1.86232141, "ECCENTRICITY": 0.0006121, "INCLINATION": 54.096, "RA_OF_ASC_NODE": 305.9151, "ARG_OF_PERICENTER": 23.7349, "MEAN_ANOMALY": 336.3032, "EPHEMERIS_TYPE": 0, "CLASSIFICATION_TYPE": "U", "NORAD_CAT_ID": 44793, "ELEMENT_SET_NO": 999, "REV_AT_EPOCH": 4142, "BSTAR": 0, "MEAN_MOTION_DOT": -5.6e-07, "MEAN_MOTION_DDOT": 0}, "tle": {"line1": "1 44793U 19078A   25360.18284948 -.00000056  00000+0  00000+0 0  9992", "line2": "2 44793  54.0960 305.9151 0006121  23.7349 336.3032  1.86232141 41424"}}, "geometry": {"type": "Point", "coordinates": [-27.10114453527527, 32.150757802296994]}}, {"type": "Feature", "properties": {"norad_id": 44794, "name": "BEIDOU-3 M21 (C43)", "group": "gnss", "lat": -39.36082046715518, "lon": -90.65382959303899, "alt_km": 21527.811288342044, "timestamp": "2025-12-27T20:30:59.528322+00:00", "meta": {"OBJECT_NAME": "BEIDOU-3 M21 (C43)", "OBJECT_ID": "2019-078B", "EPOCH": "2025-12-25T05:55:32.884896", "MEAN_MOTION": 1.86227898, "ECCENTRICITY": 0.0004304, "INCLINATION": 54.0703, "RA_OF_ASC_NODE": 305.9129, "ARG_OF_PERICENTER": 12.6939, "MEAN_ANOMALY": 347.3266, "EPHEMERIS_TYPE": 0, "CLASSIFICATION_TYPE": "U", "NORAD_CAT_ID": 44794, "ELEMENT_SET_NO": 999, "REV_AT_EPOCH": 4141, "BSTAR": 0, "MEAN_MOTION_DOT": -5.3e-07, "MEAN_MOTION_DDOT": 0}, "tle": {"line1": "1 44794U 19078B   25359.24690839 -.00000053  00000+0  00000+0 0  9995", "line2": "2 44794  54.0703 305.9129 0004304  12.6939 347.3266  1.86227898 41411"}}, "geometry": {"type": "Point", "coordinates": [-90.65382959303899, -39.36082046715518]}}, {"type": "Feature", "properties": {"norad_id": 44850, "name": "COSMOS 2544 (759)", "group": "gnss", "lat": 64.01943669590972, "lon": 148.83015201632486, "alt_km": 19159.273750124183, "timestamp": "2025-12-27T20:30:59.528335+00:00", "meta": {"OBJECT_NAME": "COSMOS 2544 (759)", "OBJECT_ID": "2019-088A", "EPOCH": "2025-12-27T06:42:41.595840", "MEAN_MOTION": 2.13102058, "ECCENTRICITY": 0.001444, "INCLINATION": 65.467, "RA_OF_ASC_NODE": 79.4725, "ARG_OF_PERICENTER": 250.8166, "MEAN_ANOMALY": 109.0715, "EPHEMERIS_TYPE": 0, "CLASSIFICATION_TYPE": "U", "NORAD_CAT_ID": 44850, "ELEMENT_SET_NO": 999, "REV_AT_EPOCH": 4705, "BSTAR": 0, "MEAN_MOTION_DOT": -1.2e-07, "MEAN_MOTION_DDOT": 0}, "tle": {"line1": "1 44850U 19088A   25361.27964810 -.00000012  00000+0  00000+0 0  9993", "line2": "2 44850  65.4670  79.4725 0014440 250.8166 109.0715  2.13102058 47057"}}, "geometry": {"type": "Point", "coordinates": [148.83015201632486, 64.01943669590972]}}, {"type": "Feature", "properties": {"norad_id": 44864, "name": "BEIDOU-3 M19 (C41)", "group": "gnss", "lat": 29.12761844933448, "lon": -133.23631032535752, "alt_km": 21564.63789964365, "timestamp": "2025-12-27T20:30:59.528347+00:00", "meta": {"OBJECT_NAME": "BEIDOU-3 M19 (C41)", "OBJECT_ID": "2019-090A", "EPOCH": "2025-12-27T02:26:46.358016", "MEAN_MOTION": 1.86231443, "ECCENTRICITY": 0.0018509, "INCLINATION": 56.4046, "RA_OF_ASC_NODE": 68.4857, "ARG_OF_PERICENTER": 285.4212, "MEAN_ANOMALY": 74.1614, "EPHEMERIS_TYPE": 0, "CLASSIFICATION_TYPE": "U", "NORAD_CAT_ID": 44864, "ELEMENT_SET_NO": 999, "REV_AT_EPOCH": 4102, "BSTAR": 0, "MEAN_MOTION_DOT": -3.5e-07, "MEAN_MOTION_DDOT": 0}, "tle": {"line1": "1 44864U 19090A   25361.10192544 -.00000035  00000+0  00000+0 0  9995", "line2": "2 44864  56.4046  68.4857 0018509 285.4212  74.1614  1.86231443 41020"}}, "geometry": {"type": "Point", "coordinates": [-133.23631032535752, 29.12761844933448]}}, {"type": "Feature", "properties": {"norad_id": 44865, "name": "BEIDOU-3 M20 (C42)", "group": "gnss", "lat": -42.264043924389284, "lon": -74.383141220258, "alt_km": 21513.57133764639, "timestamp": "2025-12-27T20:30:59.528358+00:00", "meta": {"OBJECT_NAME": "BEIDOU-3 M20 (C42)", "OBJECT_ID": "2019-090B", "EPOCH": "2025-12-27T12:01:33.425184", "MEAN_MOTION": 1.86231363, "ECCENTRICITY": 0.0015689, "INCLINATION": 56.4065, "RA_OF_ASC_NODE": 68.5068, "ARG_OF_PERICENTER": 297.5261, "MEAN_ANOMALY": 59.2827, "EPHEMERIS_TYPE": 0, "CLASSIFICATION_TYPE": "U", "NORAD_CAT_ID": 44865, "ELEMENT_SET_NO": 999, "REV_AT_EPOCH": 4101, "BSTAR": 0, "MEAN_MOTION_DOT": -3.8e-07, "MEAN_MOTION_DDOT": 0}, "tle": {"line1": "1 44865U 19090B   25361.50108131 -.00000038  00000+0  00000+0 0  9992", "line2": "2 44865  56.4065  68.5068 0015689 297.5261  59.2827  1.86231363 41011"}}, "geometry": {"type": "Point", "coordinates": [-74.383141220258, -42.264043924389284]}}, {"type": "Feature", "properties": {"norad_id": 45344, "name": "BEIDOU-3 G2 (C60)", "group": "gnss", "lat": 2.50241933670091, "lon": 124.34710946931503, "alt_km": 35794.28289202831, "timestamp": "2025-12-27T20:30:59.528369+00:00", "meta": {"OBJECT_NAME": "BEIDOU-3 G2 (C60)", "OBJECT_ID": "2020-017A", "EPOCH": "2025-12-27T09:57:30.305376", "MEAN_MOTION": 1.00271727, "ECCENTRICITY": 0.0002185, "INCLINATION": 2.5226, "RA_OF_ASC_NODE": 44.1676, "ARG_OF_PERICENTER": 236.9543, "MEAN_ANOMALY": 44.4455, "EPHEMERIS_TYPE": 0, "CLASSIFICATION_TYPE": "U", "NORAD_CAT_ID": 45344, "ELEMENT_SET_NO": 999, "REV_AT_EPOCH": 2153, "BSTAR": 0, "MEAN_MOTION_DOT": -1.19e-06, "MEAN_MOTION_DDOT": 0}, "tle": {"line1": "1 45344U 20017A   25361.41493409 -.00000119  00000+0  00000+0 0  9991", "line2": "2 45344   2.5226  44.1676 0002185 236.9543  44.4455  1.00271727 21539"}}, "geometry": {"type": "Point", "coordinates": [124.34710946931503, 2.50241933670091]}}, {"type": "Feature", "properties": {"norad_id": 45358, "name": "COSMOS 2545 (760)", "group": "gnss", "lat": -57.31653975025462, "lon": -89.70721375333481, "alt_km": 19114.15462300904, "timestamp": "2025-12-27T20:30:59.528381+00:00", "meta": {"OBJECT_NAME": "COSMOS 2545 (760)", "OBJECT_ID": "2020-018A", "EPOCH": "2025-12-27T00:08:46.380768", "MEAN_MOTION": 2.13102633, "ECCENTRICITY": 0.00112617, "INCLINATION": 64.4611, "RA_OF_ASC_NODE": 318.4699, "ARG_OF_PERICENTER": 250.7863, "MEAN_ANOMALY": 109.0965, "EPHEMERIS_TYPE": 0, "CLASSIFICATION_TYPE": "U", "NORAD_CAT_ID": 45358, "ELEMENT_SET_NO": 999, "REV_AT_EPOCH": 4499, "BSTAR": 0, "MEAN_MOTION_DOT": -3.8e-07, "MEAN_MOTION_DDOT": 0}, "tle": {"line1": "1 45358U 20018A   25361.00609237 -.00000038  00000+0  00000+0 0  9990", "line2": "2 45358  64.4611 318.4699 0011261 250.7863 109.0965  2.13102633 44998"}}, "geometry": {"type": "Point", "coordinates": [-89.70721375333481, -57.31653975025462]}}]}